{
  "type": "FeatureCollection",
  "features": [
    {
      "type": "Feature",
      "properties": {
        "norad_id": 38091,
        "name": "BEIDOU-2 G5 (C05)",
        "group": "gnss",
        "lat": 1.4744546698266896,
        "lon": 98.25239748147311,
        "alt_km": 35836.98967863298,
        "timestamp": "2025-12-19T20:43:00.327798+00:00",
        "meta_object_name": "BEIDOU-2 G5 (C05)",
        "meta_object_id": "2012-008A",
        "meta_epoch": "2025-12-19T03:16:16.701024",
        "meta_mean_motion": 1.00268437,
        "meta_eccentricity": 0.00129619,
        "meta_inclination": 3.1246,
        "meta_ra_of_asc_node": 70.6885,
        "meta_arg_of_pericenter": 231.3225,
        "meta_mean_anomaly": 253.8349,
        "meta_ephemeris_type": 0,
        "meta_classification_type": "U",
        "meta_norad_cat_id": 38091,
        "meta_element_set_no": 999,
        "meta_rev_at_epoch": 5056,
        "meta_bstar": 0,
        "meta_mean_motion_dot": 7.9e-07,
        "meta_mean_motion_ddot": 0,
        "tle_line1": "1 38091U 12008A   25353.13630441  .00000079  00000+0  00000+0 0  9996",
        "tle_line2": "2 38091   3.1246  70.6885 0012961 231.3225 253.8349  1.00268437 50561"
      },
      "geometry": {
        "type": "Point",
        "coordinates": [
          98.25239748147311,
          1.4744546698266896
        ]
      }
    },
    {
      "type": "Feature",
      "properties": {
        "norad_id": 38250,
        "name": "BEIDOU-2 M3 (C11)",
        "group": "gnss",
        "lat": 10.280252315881263,
        "lon": -42.05745143613297,
        "alt_km": 21535.79440267509,
        "timestamp": "2025-12-19T20:43:00.327814+00:00",
        "meta_object_name": "BEIDOU-2 M3 (C11)",
        "meta_object_id": "2012-018A",
        "meta_epoch": "2025-12-18T05:36:36.842400",
        "meta_mean_motion": 1.86230021,
        "meta_eccentricity": 0.00242148,
        "meta_inclination": 55.9152,
        "meta_ra_of_asc_node": 310.9725,
        "meta_arg_of_pericenter": 274.7921,
        "meta_mean_anomaly": 84.917,
        "meta_ephemeris_type": 0,
        "meta_classification_type": "U",
        "meta_norad_cat_id": 38250,
        "meta_element_set_no": 999,
        "meta_rev_at_epoch": 9257,
        "meta_bstar": 0,
        "meta_mean_motion_dot": -8.6e-07,
        "meta_mean_motion_ddot": 0,
        "tle_line1": "1 38250U 12018A   25352.23375975 -.00000086  00000+0  00000+0 0  9991",
        "tle_line2": "2 38250  55.9152 310.9725 0024214 274.7921  84.9170  1.86230021 92574"
      },
      "geometry": {
        "type": "Point",
        "coordinates": [
          -42.05745143613297,
          10.280252315881263
        ]
      }
    },
    {
      "type": "Feature",
      "properties": {
        "norad_id": 38251,
        "name": "BEIDOU-2 M4 (C12)",
        "group": "gnss",
        "lat": 44.51911446482959,
        "lon": -7.983396839050705,
        "alt_km": 21555.46153665176,
        "timestamp": "2025-12-19T20:43:00.327826+00:00",
        "meta_object_name": "BEIDOU-2 M4 (C12)",
        "meta_object_id": "2012-018B",
        "meta_epoch": "2025-12-19T05:45:13.599936",
        "meta_mean_motion": 1.86229684,
        "meta_eccentricity": 0.00153935,
        "meta_inclination": 55.8157,
        "meta_ra_of_asc_node": 310.167,
        "meta_arg_of_pericenter": 278.4783,
        "meta_mean_anomaly": 81.3347,
        "meta_ephemeris_type": 0,
        "meta_classification_type": "U",
        "meta_norad_cat_id": 38251,
        "meta_element_set_no": 999,
        "meta_rev_at_epoch": 9259,
        "meta_bstar": 0,
        "meta_mean_motion_dot": -7.8e-07,
        "meta_mean_motion_ddot": 0,
        "tle_line1": "1 38251U 12018B   25353.23974074 -.00000078  00000+0  00000+0 0  9999",
        "tle_line2": "2 38251  55.8157 310.1670 0015393 278.4783  81.3347  1.86229684 92597"
      },
      "geometry": {
        "type": "Point",
        "coordinates": [
          -7.983396839050705,
          44.51911446482959
        ]
      }
    },
    {
      "type": "Feature",
      "properties": {
        "norad_id": 38652,
        "name": "SES-5 (EGNOS/PRN 136)",
        "group": "gnss",
        "lat": 0.0721741545151986,
        "lon": 44.42687887457651,
        "alt_km": 35792.46295098386,
        "timestamp": "2025-12-19T20:43:00.327838+00:00",
        "meta_object_name": "SES-5 (EGNOS/PRN 136)",
        "meta_object_id": "2012-036A",
        "meta_epoch": "2025-12-18T13:19:11.535168",
        "meta_mean_motion": 1.00270056,
        "meta_eccentricity": 0.00018187,
        "meta_inclination": 0.0555,
        "meta_ra_of_asc_node": 307.3887,
        "meta_arg_of_pericenter": 315.9373,
        "meta_mean_anomaly": 28.8626,
        "meta_ephemeris_type": 0,
        "meta_classification_type": "U",
        "meta_norad_cat_id": 38652,
        "meta_element_set_no": 999,
        "meta_rev_at_epoch": 4264,
        "meta_bstar": 0,
        "meta_mean_motion_dot": 5.9e-07,
        "meta_mean_motion_ddot": 0,
        "tle_line1": "1 38652U 12036A   25352.55499462  .00000059  00000+0  00000+0 0  9999",
        "tle_line2": "2 38652   0.0555 307.3887 0001818 315.9373  28.8626  1.00270056 42645"
      },
      "geometry": {
        "type": "Point",
        "coordinates": [
          44.42687887457651,
          0.0721741545151986
        ]
      }
    },
    {
      "type": "Feature",
      "properties": {
        "norad_id": 38775,
        "name": "BEIDOU-2 M6 (C14)",
        "group": "gnss",
        "lat": -52.266614763460744,
        "lon": -52.02349219830252,
        "alt_km": 21534.771563358932,
        "timestamp": "2025-12-19T20:43:00.327850+00:00",
        "meta_object_name": "BEIDOU-2 M6 (C14)",
        "meta_object_id": "2012-050B",
        "meta_epoch": "2025-12-18T09:55:40.044288",
        "meta_mean_motion": 1.8623091,
        "meta_eccentricity": 0.00113703,
        "meta_inclination": 56.3831,
        "meta_ra_of_asc_node": 68.8791,
        "meta_arg_of_pericenter": 343.3858,
        "meta_mean_anomaly": 16.6071,
        "meta_ephemeris_type": 0,
        "meta_classification_type": "U",
        "meta_norad_cat_id": 38775,
        "meta_element_set_no": 999,
        "meta_rev_at_epoch": 8994,
        "meta_bstar": 0,
        "meta_mean_motion_dot": -6.3e-07,
        "meta_mean_motion_ddot": 0,
        "tle_line1": "1 38775U 12050B   25352.41365792 -.00000063  00000+0  00000+0 0  9990",
        "tle_line2": "2 38775  56.3831  68.8791 0011370 343.3858  16.6071  1.86230910 89944"
      },
      "geometry": {
        "type": "Point",
        "coordinates": [
          -52.02349219830252,
          -52.266614763460744
        ]
      }
    },
    {
      "type": "Feature",
      "properties": {
        "norad_id": 38779,
        "name": "GSAT-10 (GAGAN/PRN 128)",
        "group": "gnss",
        "lat": -0.02210286171117655,
        "lon": 122.47277130373944,
        "alt_km": 35775.52627397244,
        "timestamp": "2025-12-19T20:43:00.327862+00:00",
        "meta_object_name": "GSAT-10 (GAGAN/PRN 128)",
        "meta_object_id": "2012-051B",
        "meta_epoch": "2025-12-18T15:24:07.068672",
        "meta_mean_motion": 1.00272485,
        "meta_eccentricity": 0.00024695,
        "meta_inclination": 0.0769,
        "meta_ra_of_asc_node": 265.4602,
        "meta_arg_of_pericenter": 219.0133,
        "meta_mean_anomaly": 277.0818,
        "meta_ephemeris_type": 0,
        "meta_classification_type": "U",
        "meta_norad_cat_id": 38779,
        "meta_element_set_no": 999,
        "meta_rev_at_epoch": 4828,
        "meta_bstar": 0,
        "meta_mean_motion_dot": -1.4e-06,
        "meta_mean_motion_ddot": 0,
        "tle_line1": "1 38779U 12051B   25352.64174848 -.00000140  00000+0  00000+0 0  9996",
        "tle_line2": "2 38779   0.0769 265.4602 0002469 219.0133 277.0818  1.00272485 48287"
      },
      "geometry": {
        "type": "Point",
        "coordinates": [
          122.47277130373944,
          -0.02210286171117655
        ]
      }
    },
    {
      "type": "Feature",
      "properties": {
        "norad_id": 38833,
        "name": "GPS BIIF-3  (PRN 24)",
        "group": "gnss",
        "lat": 18.818618058852326,
        "lon": 165.52159383479986,
        "alt_km": 19821.02261412344,
        "timestamp": "2025-12-19T20:43:00.327875+00:00",
        "meta_object_name": "GPS BIIF-3  (PRN 24)",
        "meta_object_id": "2012-053A",
        "meta_epoch": "2025-12-18T20:00:59.061024",
        "meta_mean_motion": 2.0056508,
        "meta_eccentricity": 0.01760017,
        "meta_inclination": 53.559,
        "meta_ra_of_asc_node": 150.9891,
        "meta_arg_of_pericenter": 64.0868,
        "meta_mean_anomaly": 297.7017,
        "meta_ephemeris_type": 0,
        "meta_classification_type": "U",
        "meta_norad_cat_id": 38833,
        "meta_element_set_no": 999,
        "meta_rev_at_epoch": 9582,
        "meta_bstar": 0,
        "meta_mean_motion_dot": 5.8e-07,
        "meta_mean_motion_ddot": 0,
        "tle_line1": "1 38833U 12053A   25352.83401691  .00000058  00000+0  00000+0 0  9996",
        "tle_line2": "2 38833  53.5590 150.9891 0176001  64.0868 297.7017  2.00565080 95827"
      },
      "geometry": {
        "type": "Point",
        "coordinates": [
          165.52159383479986,
          18.818618058852326
        ]
      }
    }
  ]
}